{
    "links": {
        "self": "http://www.neowsapp.com/rest/v1/neo/3770324?api_key=iIulBulltgU6a56xZRHN4H3l9WmuAYTsLGpBGhQ2"
    },
    "id": "3770324",
    "neo_reference_id": "3770324",
    "name": "(2017 EG)",
    "designation": "2017 EG",
    "nasa_jpl_url": "http://ssd.jpl.nasa.gov/sbdb.cgi?sstr=3770324",
    "absolute_magnitude_h": 24.0,
    "estimated_diameter": {
        "kilometers": {
            "estimated_diameter_min": 0.0421264611,
            "estimated_diameter_max": 0.0941976306
        },
        "meters": {
            "estimated_diameter_min": 42.1264610556,
            "estimated_diameter_max": 94.1976305719
        },
        "miles": {
            "estimated_diameter_min": 0.0261761612,
            "estimated_diameter_max": 0.0585316759
        },
        "feet": {
            "estimated_diameter_min": 138.2101784897,
            "estimated_diameter_max": 309.0473542854
        }
    },
    "is_potentially_hazardous_asteroid": false,
    "close_approach_data": [
        {
            "close_approach_date": "2008-07-13",
            "close_approach_date_full": "2008-Jul-13 15:14",
            "epoch_date_close_approach": 1215962040000,
            "relative_velocity": {
                "kilometers_per_second": "11.5213444927",
                "kilometers_per_hour": "41476.8401737949",
                "miles_per_hour": "25772.0954957672"
            },
            "miss_distance": {
                "astronomical": "0.3806968514",
                "lunar": "148.0910751946",
                "kilometers": "56951438.085146518",
                "miles": "35387982.6635492284"
            },
            "orbiting_body": "Earth"
        },
        {
            "close_approach_date": "2017-03-04",
            "close_approach_date_full": "2017-Mar-04 17:01",
            "epoch_date_close_approach": 1488646860000,
            "relative_velocity": {
                "kilometers_per_second": "8.9694184181",
                "kilometers_per_hour": "32289.9063051503",
                "miles_per_hour": "20063.6920594419"
            },
            "miss_distance": {
                "astronomical": "0.0964973129",
                "lunar": "37.5374547181",
                "kilometers": "14435792.470563523",
                "miles": "8969985.4974536974"
            },
            "orbiting_body": "Earth"
        },
        {
            "close_approach_date": "2017-07-30",
            "close_approach_date_full": "2017-Jul-30 06:17",
            "epoch_date_close_approach": 1501395420000,
            "relative_velocity": {
                "kilometers_per_second": "9.227998167",
                "kilometers_per_hour": "33220.7934011774",
                "miles_per_hour": "20642.1090997483"
            },
            "miss_distance": {
                "astronomical": "0.2490897442",
                "lunar": "96.8959104938",
                "kilometers": "37263295.171164854",
                "miles": "23154337.9384448252"
            },
            "orbiting_body": "Earth"
        },
        {
            "close_approach_date": "2026-03-06",
            "close_approach_date_full": "2026-Mar-06 16:35",
            "epoch_date_close_approach": 1772814900000,
            "relative_velocity": {
                "kilometers_per_second": "12.3450485067",
                "kilometers_per_hour": "44442.1746240458",
                "miles_per_hour": "27614.6390045911"
            },
            "miss_distance": {
                "astronomical": "0.2615593502",
                "lunar": "101.7465872278",
                "kilometers": "39128721.668504074",
                "miles": "24313460.2146772612"
            },
            "orbiting_body": "Earth"
        }
    ],
    "orbital_data": {
        "orbit_id": "2",
        "orbit_determination_date": "2017-04-06 08:19:45",
        "first_observation_date": "2017-02-25",
        "last_observation_date": "2017-03-04",
        "data_arc_in_days": 7,
        "observations_used": 27,
        "orbit_uncertainty": "7",
        "minimum_orbit_intersection": ".0954526",
        "jupiter_tisserand_invariant": "5.321",
        "epoch_osculation": "2459000.5",
        "eccentricity": ".1152648927359403",
        "semi_major_axis": "1.179050675084485",
        "inclination": "16.22918957356433",
        "ascending_node_longitude": "337.6090708539029",
        "orbital_period": "467.6243675083049",
        "perihelion_distance": "1.043147525490633",
        "perihelion_argument": "235.4487132260899",
        "aphelion_distance": "1.314953824678336",
        "perihelion_time": "2458802.847751310488",
        "mean_anomaly": "152.162321881057",
        "mean_motion": ".7698486755902567",
        "equinox": "J2000",
        "orbit_class": {
            "orbit_class_type": "AMO",
            "orbit_class_description": "Near-Earth asteroid orbits similar to that of 1221 Amor",
            "orbit_class_range": "1.017 AU < q (perihelion) < 1.3 AU"
        }
    },
    "is_sentry_object": false
}